{"type": "FeatureCollection", "features": [ {"type": "Feature", "properties": {"norad_id": 44542, "name": "BEIDOU-3 M24 (C46)", "group": "beidou", "lat": 53.661563438222515, "lon": -67.84063244227552, "alt_km": 21514.010701818268, "timestamp": "2025-12-11T10:53:16.151867+00:00", "meta": {"OBJECT_NAME": "BEIDOU-3 M24 (C46)", "OBJECT_ID": "2019-061A", "EPOCH": "2025-12-10T05:37:21.080064", "MEAN_MOTION": 1.86229306, "ECCENTRICITY": 0.0009591, "INCLINATION": 54.4003, "RA_OF_ASC_NODE": 189.1006, "ARG_OF_PERICENTER": 24.8037, "MEAN_ANOMALY": 335.3013, "EPHEMERIS_TYPE": 0, "CLASSIFICATION_TYPE": "U", "NORAD_CAT_ID": 44542, "ELEMENT_SET_NO": 999, "REV_AT_EPOCH": 4227, "BSTAR": 0, "MEAN_MOTION_DOT": 5.4e-07, "MEAN_MOTION_DDOT": 0}, "tle": {"line1": "1 44542U 19061A   25344.23427176  .00000054  00000+0  00000+0 0  9993", "line2": "2 44542  54.4003 189.1006 0009591  24.8037 335.3013  1.86229306 42270"}}, "geometry": {"type": "Point", "coordinates": [-67.84063244227552, 53.661563438222515]}}, {"type": "Feature", "properties": {"norad_id": 44543, "name": "BEIDOU-3 M23 (C45)", "group": "beidou", "lat": 8.38688990756404, "lon": -164.90221787069166, "alt_km": 21510.976793949685, "timestamp": "2025-12-11T10:53:16.151879+00:00", "meta": {"OBJECT_NAME": "BEIDOU-3 M23 (C45)", "OBJECT_ID": "2019-061B", "EPOCH": "2025-12-08T18:00:07.463232", "MEAN_MOTION": 1.8622754, "ECCENTRICITY": 0.00060873, "INCLINATION": 54.3989, "RA_OF_ASC_NODE": 189.119, "ARG_OF_PERICENTER": 23.0878, "MEAN_ANOMALY": 334.736, "EPHEMERIS_TYPE": 0, "CLASSIFICATION_TYPE": "U", "NORAD_CAT_ID": 44543, "ELEMENT_SET_NO": 999, "REV_AT_EPOCH": 4224, "BSTAR": 0, "MEAN_MOTION_DOT": 5e-07, "MEAN_MOTION_DDOT": 0}, "tle": {"line1": "1 44543U 19061B   25342.75008638  .00000050  00000+0  00000+0 0  9993", "line2": "2 44543  54.3989 189.1190 0006087  23.0878 334.7360  1.86227540 42241"}}, "geometry": {"type": "Point", "coordinates": [-164.90221787069166, 8.38688990756404]}}, {"type": "Feature", "properties": {"norad_id": 44709, "name": "BEIDOU-3 IGSO-3 (C40)", "group": "beidou", "lat": 52.00982324185576, "lon": -14.061216392910744, "alt_km": 35875.62648826172, "timestamp": "2025-12-11T10:53:16.151892+00:00", "meta": {"OBJECT_NAME": "BEIDOU-3 IGSO-3 (C40)", "OBJECT_ID": "2019-073A", "EPOCH": "2025-11-20T07:11:22.740000", "MEAN_MOTION": 1.00250097, "ECCENTRICITY": 0.0044538, "INCLINATION": 55.163, "RA_OF_ASC_NODE": 283.159, "ARG_OF_PERICENTER": 191.5856, "MEAN_ANOMALY": 168.2409, "EPHEMERIS_TYPE": 0, "CLASSIFICATION_TYPE": "U", "NORAD_CAT_ID": 44709, "ELEMENT_SET_NO": 999, "REV_AT_EPOCH": 2236, "BSTAR": 0, "MEAN_MOTION_DOT": -2.06e-06, "MEAN_MOTION_DDOT": 0}, "tle": {"line1": "1 44709U 19073A   25324.29956875 -.00000206  00000+0  00000+0 0  9998", "line2": "2 44709  55.1630 283.1590 0044538 191.5856 168.2409  1.00250097 22360"}}, "geometry": {"type": "Point", "coordinates": [-14.061216392910744, 52.00982324185576]}}, {"type": "Feature", "properties": {"norad_id": 44793, "name": "BEIDOU-3 M22 (C44)", "group": "beidou", "lat": -19.88457394022745, "lon": 141.58499586056118, "alt_km": 21546.502929897844, "timestamp": "2025-12-11T10:53:16.151907+00:00", "meta": {"OBJECT_NAME": "BEIDOU-3 M22 (C44)", "OBJECT_ID": "2019-078A", "EPOCH": "2025-12-10T01:47:05.181792", "MEAN_MOTION": 1.86231719, "ECCENTRICITY": 0.0005679, "INCLINATION": 54.1107, "RA_OF_ASC_NODE": 306.4794, "ARG_OF_PERICENTER": 23.2059, "MEAN_ANOMALY": 336.8105, "EPHEMERIS_TYPE": 0, "CLASSIFICATION_TYPE": "U", "NORAD_CAT_ID": 44793, "ELEMENT_SET_NO": 999, "REV_AT_EPOCH": 4112, "BSTAR": 0, "MEAN_MOTION_DOT": -8e-07, "MEAN_MOTION_DDOT": 0}, "tle": {"line1": "1 44793U 19078A   25344.07436553 -.00000080  00000+0  00000+0 0  9990", "line2": "2 44793  54.1107 306.4794 0005679  23.2059 336.8105  1.86231719 41120"}}, "geometry": {"type": "Point", "coordinates": [141.58499586056118, -19.88457394022745]}}, {"type": "Feature", "properties": {"norad_id": 44794, "name": "BEIDOU-3 M21 (C43)", "group": "beidou", "lat": 48.41217584064761, "lon": 71.67981949501379, "alt_km": 21524.950942975214, "timestamp": "2025-12-11T10:53:16.151918+00:00", "meta": {"OBJECT_NAME": "BEIDOU-3 M21 (C43)", "OBJECT_ID": "2019-078B", "EPOCH": "2025-12-09T03:18:47.736000", "MEAN_MOTION": 1.86227438, "ECCENTRICITY": 0.00038519, "INCLINATION": 54.0853, "RA_OF_ASC_NODE": 306.4778, "ARG_OF_PERICENTER": 10.0441, "MEAN_ANOMALY": 349.953, "EPHEMERIS_TYPE": 0, "CLASSIFICATION_TYPE": "U", "NORAD_CAT_ID": 44794, "ELEMENT_SET_NO": 999, "REV_AT_EPOCH": 4111, "BSTAR": 0, "MEAN_MOTION_DOT": -7.6e-07, "MEAN_MOTION_DDOT": 0}, "tle": {"line1": "1 44794U 19078B   25343.13805250 -.00000076  00000+0  00000+0 0  9996", "line2": "2 44794  54.0853 306.4778 0003851  10.0441 349.9530  1.86227438 41118"}}, "geometry": {"type": "Point", "coordinates": [71.67981949501379, 48.41217584064761]}}, {"type": "Feature", "properties": {"norad_id": 44864, "name": "BEIDOU-3 M19 (C41)", "group": "beidou", "lat": -40.83375996707543, "lon": 33.985197535760435, "alt_km": 21487.06145618512, "timestamp": "2025-12-11T10:53:16.151930+00:00", "meta": {"OBJECT_NAME": "BEIDOU-3 M19 (C41)", "OBJECT_ID": "2019-090A", "EPOCH": "2025-12-10T23:47:39.658272", "MEAN_MOTION": 1.86231263, "ECCENTRICITY": 0.0017877, "INCLINATION": 56.392, "RA_OF_ASC_NODE": 69.0187, "ARG_OF_PERICENTER": 285.2046, "MEAN_ANOMALY": 73.1126, "EPHEMERIS_TYPE": 0, "CLASSIFICATION_TYPE": "U", "NORAD_CAT_ID": 44864, "ELEMENT_SET_NO": 999, "REV_AT_EPOCH": 4072, "BSTAR": 0, "MEAN_MOTION_DOT": -6e-07, "MEAN_MOTION_DDOT": 0}, "tle": {"line1": "1 44864U 19090A   25344.99143123 -.00000060  00000+0  00000+0 0  9990", "line2": "2 44864  56.3920  69.0187 0017877 285.2046  73.1126  1.86231263 40726"}}, "geometry": {"type": "Point", "coordinates": [33.985197535760435, -40.83375996707543]}}, {"type": "Feature", "properties": {"norad_id": 44865, "name": "BEIDOU-3 M20 (C42)", "group": "beidou", "lat": 30.844047511773798, "lon": 92.40927072021582, "alt_km": 21531.428373776213, "timestamp": "2025-12-11T10:53:16.151942+00:00", "meta": {"OBJECT_NAME": "BEIDOU-3 M20 (C42)", "OBJECT_ID": "2019-090B", "EPOCH": "2025-12-10T20:36:05.507712", "MEAN_MOTION": 1.86231317, "ECCENTRICITY": 0.0014897, "INCLINATION": 56.3937, "RA_OF_ASC_NODE": 69.0576, "ARG_OF_PERICENTER": 298.003, "MEAN_ANOMALY": 60.7372, "EPHEMERIS_TYPE": 0, "CLASSIFICATION_TYPE": "U", "NORAD_CAT_ID": 44865, "ELEMENT_SET_NO": 999, "REV_AT_EPOCH": 4070, "BSTAR": 0, "MEAN_MOTION_DOT": -5.8e-07, "MEAN_MOTION_DDOT": 0}, "tle": {"line1": "1 44865U 19090B   25344.85839708 -.00000058  00000+0  00000+0 0  9994", "line2": "2 44865  56.3937  69.0576 0014897 298.0030  60.7372  1.86231317 40704"}}, "geometry": {"type": "Point", "coordinates": [92.40927072021582, 30.844047511773798]}}, {"type": "Feature", "properties": {"norad_id": 45344, "name": "BEIDOU-3 G2 (C60)", "group": "beidou", "lat": -2.462896719980989, "lon": -36.22469548121896, "alt_km": 35768.31881990697, "timestamp": "2025-12-11T10:53:16.151954+00:00", "meta": {"OBJECT_NAME": "BEIDOU-3 G2 (C60)", "OBJECT_ID": "2020-017A", "EPOCH": "2025-12-08T17:24:33.367680", "MEAN_MOTION": 1.00273181, "ECCENTRICITY": 0.00043587, "INCLINATION": 2.49, "RA_OF_ASC_NODE": 43.8378, "ARG_OF_PERICENTER": 265.5358, "MEAN_ANOMALY": 109.5017, "EPHEMERIS_TYPE": 0, "CLASSIFICATION_TYPE": "U", "NORAD_CAT_ID": 45344, "ELEMENT_SET_NO": 999, "REV_AT_EPOCH": 2135, "BSTAR": 0, "MEAN_MOTION_DOT": -1.39e-06, "MEAN_MOTION_DDOT": 0}, "tle": {"line1": "1 45344U 20017A   25342.72538620 -.00000139  00000+0  00000+0 0  9991", "line2": "2 45344   2.4900  43.8378 0004358 265.5358 109.5017  1.00273181 21351"}}, "geometry": {"type": "Point", "coordinates": [-36.22469548121896, -2.462896719980989]}}, {"type": "Feature", "properties": {"norad_id": 45807, "name": "BEIDOU-3 G3 (C61)", "group": "beidou", "lat": -1.8901342643929826, "lon": -5.73722049710244, "alt_km": 35761.5996351494, "timestamp": "2025-12-11T10:53:16.151966+00:00", "meta": {"OBJECT_NAME": "BEIDOU-3 G3 (C61)", "OBJECT_ID": "2020-040A", "EPOCH": "2025-12-08T17:33:17.532288", "MEAN_MOTION": 1.00275813, "ECCENTRICITY": 0.00060306, "INCLINATION": 1.9816, "RA_OF_ASC_NODE": 66.5886, "ARG_OF_PERICENTER": 306.262, "MEAN_ANOMALY": 78.7159, "EPHEMERIS_TYPE": 0, "CLASSIFICATION_TYPE": "U", "NORAD_CAT_ID": 45807, "ELEMENT_SET_NO": 999, "REV_AT_EPOCH": 2016, "BSTAR": 0, "MEAN_MOTION_DOT": -3.52e-06, "MEAN_MOTION_DDOT": 0}, "tle": {"line1": "1 45807U 20040A   25342.73145292 -.00000352  00000+0  00000+0 0  9998", "line2": "2 45807   1.9816  66.5886 0006030 306.2620  78.7159  1.00275813 20161"}}, "geometry": {"type": "Point", "coordinates": [-5.73722049710244, -1.8901342643929826]}}, {"type": "Feature", "properties": {"norad_id": 56564, "name": "BEIDOU-3 G4 (C62)", "group": "beidou", "lat": 0.8168112477614141, "lon": 43.767674063267656, "alt_km": 35794.38835076079, "timestamp": "2025-12-11T10:53:16.151979+00:00", "meta": {"OBJECT_NAME": "BEIDOU-3 G4 (C62)", "OBJECT_ID": "2023-066A", "EPOCH": "2025-12-11T04:00:01.931328", "MEAN_MOTION": 1.00271451, "ECCENTRICITY": 0.0002952, "INCLINATION": 0.818, "RA_OF_ASC_NODE": 301.9379, "ARG_OF_PERICENTER": 233.8725, "MEAN_ANOMALY": 124.3951, "EPHEMERIS_TYPE": 0, "CLASSIFICATION_TYPE": "U", "NORAD_CAT_ID": 56564, "ELEMENT_SET_NO": 999, "REV_AT_EPOCH": 950, "BSTAR": 0, "MEAN_MOTION_DOT": -1.05e-06, "MEAN_MOTION_DDOT": 0}, "tle": {"line1": "1 56564U 23066A   25345.16668902 -.00000105  00000+0  00000+0 0  9995", "line2": "2 56564   0.8180 301.9379 0002952 233.8725 124.3951  1.00271451  9505"}}, "geometry": {"type": "Point", "coordinates": [43.767674063267656, 0.8168112477614141]}}]}